{
  "type": "FeatureCollection",
  "features": [
    {
      "type": "Feature",
      "properties": {
        "norad_id": 34765,
        "name": "IRIDIUM 33 DEB",
        "group": "iridium-33-debris",
        "lat": 22.05904583623298,
        "lon": -153.69615794475416,
        "alt_km": 745.1694128351037,
        "timestamp": "2025-12-24T07:45:06.584002+00:00",
        "meta_object_name": "IRIDIUM 33 DEB",
        "meta_object_id": "1997-051LJ",
        "meta_epoch": "2025-12-23T02:58:27.844896",
        "meta_mean_motion": 14.40490027,
        "meta_eccentricity": 0.00166531,
        "meta_inclination": 86.3383,
        "meta_ra_of_asc_node": 28.3053,
        "meta_arg_of_pericenter": 176.053,
        "meta_mean_anomaly": 247.6854,
        "meta_ephemeris_type": 0,
        "meta_classification_type": "U",
        "meta_norad_cat_id": 34765,
        "meta_element_set_no": 999,
        "meta_rev_at_epoch": 87763,
        "meta_bstar": 0.00035770807,
        "meta_mean_motion_dot": 1.159e-05,
        "meta_mean_motion_ddot": 0,
        "tle_line1": "1 34765U 97051LJ  25357.12393339  .00001159  00000+0  35771-3 0  9993",
        "tle_line2": "2 34765  86.3383  28.3053 0016653 176.0530 247.6854 14.40490027877630"
      },
      "geometry": {
        "type": "Point",
        "coordinates": [
          -153.69615794475416,
          22.05904583623298
        ]
      }
    },
    {
      "type": "Feature",
      "properties": {
        "norad_id": 34833,
        "name": "IRIDIUM 33 DEB",
        "group": "iridium-33-debris",
        "lat": 39.834838077943026,
        "lon": 49.0184678000901,
        "alt_km": 700.7438381931979,
        "timestamp": "2025-12-24T07:45:06.584013+00:00",
        "meta_object_name": "IRIDIUM 33 DEB",
        "meta_object_id": "1997-051MH",
        "meta_epoch": "2025-12-23T09:00:57.983904",
        "meta_mean_motion": 14.52434607,
        "meta_eccentricity": 0.00213257,
        "meta_inclination": 86.3921,
        "meta_ra_of_asc_node": 46.4097,
        "meta_arg_of_pericenter": 65.9688,
        "meta_mean_anomaly": 63.9941,
        "meta_ephemeris_type": 0,
        "meta_classification_type": "U",
        "meta_norad_cat_id": 34833,
        "meta_element_set_no": 999,
        "meta_rev_at_epoch": 87869,
        "meta_bstar": 0.00067453879,
        "meta_mean_motion_dot": 2.777e-05,
        "meta_mean_motion_ddot": 0,
        "tle_line1": "1 34833U 97051MH  25357.37567111  .00002777  00000+0  67454-3 0  9997",
        "tle_line2": "2 34833  86.3921  46.4097 0021325  65.9688  63.9941 14.52434607878693"
      },
      "geometry": {
        "type": "Point",
        "coordinates": [
          49.0184678000901,
          39.834838077943026
        ]
      }
    },
    {
      "type": "Feature",
      "properties": {
        "norad_id": 34870,
        "name": "IRIDIUM 33 DEB",
        "group": "iridium-33-debris",
        "lat": -62.91943769775617,
        "lon": -58.469894557557346,
        "alt_km": 658.5474166107779,
        "timestamp": "2025-12-24T07:45:06.584023+00:00",
        "meta_object_name": "IRIDIUM 33 DEB",
        "meta_object_id": "1997-051MQ",
        "meta_epoch": "2025-12-22T20:23:31.246080",
        "meta_mean_motion": 14.76611259,
        "meta_eccentricity": 0.00177501,
        "meta_inclination": 86.3115,
        "meta_ra_of_asc_node": 309.4529,
        "meta_arg_of_pericenter": 146.7714,
        "meta_mean_anomaly": 243.206,
        "meta_ephemeris_type": 0,
        "meta_classification_type": "U",
        "meta_norad_cat_id": 34870,
        "meta_element_set_no": 999,
        "meta_rev_at_epoch": 89060,
        "meta_bstar": 0.0014600541,
        "meta_mean_motion_dot": 0.0001025,
        "meta_mean_motion_ddot": 0,
        "tle_line1": "1 34870U 97051MQ  25356.84966720  .00010250  00000+0  14601-2 0  9998",
        "tle_line2": "2 34870  86.3115 309.4529 0017750 146.7714 243.2060 14.76611259890602"
      },
      "geometry": {
        "type": "Point",
        "coordinates": [
          -58.469894557557346,
          -62.91943769775617
        ]
      }
    },
    {
      "type": "Feature",
      "properties": {
        "norad_id": 34896,
        "name": "IRIDIUM 33 DEB",
        "group": "iridium-33-debris",
        "lat": 72.25982413418119,
        "lon": -26.93682807949267,
        "alt_km": 669.010742706876,
        "timestamp": "2025-12-24T07:45:06.584033+00:00",
        "meta_object_name": "IRIDIUM 33 DEB",
        "meta_object_id": "1997-051MY",
        "meta_epoch": "2025-12-23T15:50:48.505632",
        "meta_mean_motion": 14.66376054,
        "meta_eccentricity": 0.00256655,
        "meta_inclination": 86.33,
        "meta_ra_of_asc_node": 321.7865,
        "meta_arg_of_pericenter": 175.3645,
        "meta_mean_anomaly": 1.4458,
        "meta_ephemeris_type": 0,
        "meta_classification_type": "U",
        "meta_norad_cat_id": 34896,
        "meta_element_set_no": 999,
        "meta_rev_at_epoch": 87779,
        "meta_bstar": 0.0009097586,
        "meta_mean_motion_dot": 5.073e-05,
        "meta_mean_motion_ddot": 0,
        "tle_line1": "1 34896U 97051MY  25357.66028363  .00005073  00000+0  90976-3 0  9996",
        "tle_line2": "2 34896  86.3300 321.7865 0025665 175.3645   1.4458 14.66376054877791"
      },
      "geometry": {
        "type": "Point",
        "coordinates": [
          -26.93682807949267,
          72.25982413418119
        ]
      }
    },
    {
      "type": "Feature",
      "properties": {
        "norad_id": 34926,
        "name": "IRIDIUM 33 DEB",
        "group": "iridium-33-debris",
        "lat": 34.45051694931406,
        "lon": 5.560453483574787,
        "alt_km": 748.7097309713654,
        "timestamp": "2025-12-24T07:45:06.584044+00:00",
        "meta_object_name": "IRIDIUM 33 DEB",
        "meta_object_id": "1997-051NF",
        "meta_epoch": "2025-12-22T01:22:31.159776",
        "meta_mean_motion": 14.5480682,
        "meta_eccentricity": 0.00744191,
        "meta_inclination": 86.1317,
        "meta_ra_of_asc_node": 3.9511,
        "meta_arg_of_pericenter": 260.4851,
        "meta_mean_anomaly": 154.6666,
        "meta_ephemeris_type": 0,
        "meta_classification_type": "U",
        "meta_norad_cat_id": 34926,
        "meta_element_set_no": 999,
        "meta_rev_at_epoch": 86592,
        "meta_bstar": 0.0057923661,
        "meta_mean_motion_dot": 0.00025863,
        "meta_mean_motion_ddot": 0,
        "tle_line1": "1 34926U 97051NF  25356.05730509  .00025863  00000+0  57924-2 0  9998",
        "tle_line2": "2 34926  86.1317   3.9511 0074419 260.4851 154.6666 14.54806820865924"
      },
      "geometry": {
        "type": "Point",
        "coordinates": [
          5.560453483574787,
          34.45051694931406
        ]
      }
    },
    {
      "type": "Feature",
      "properties": {
        "norad_id": 34985,
        "name": "IRIDIUM 33 DEB",
        "group": "iridium-33-debris",
        "lat": -7.287372217640874,
        "lon": 51.472323367221584,
        "alt_km": 771.1795239762268,
        "timestamp": "2025-12-24T07:45:06.584054+00:00",
        "meta_object_name": "IRIDIUM 33 DEB",
        "meta_object_id": "1997-051NR",
        "meta_epoch": "2025-12-23T22:21:18.155232",
        "meta_mean_motion": 14.42054167,
        "meta_eccentricity": 0.00219683,
        "meta_inclination": 86.3684,
        "meta_ra_of_asc_node": 52.1047,
        "meta_arg_of_pericenter": 182.3312,
        "meta_mean_anomaly": 299.1424,
        "meta_ephemeris_type": 0,
        "meta_classification_type": "U",
        "meta_norad_cat_id": 34985,
        "meta_element_set_no": 999,
        "meta_rev_at_epoch": 87336,
        "meta_bstar": 0.00064796479,
        "meta_mean_motion_dot": 2.152e-05,
        "meta_mean_motion_ddot": 0,
        "tle_line1": "1 34985U 97051NR  25357.93146013  .00002152  00000+0  64796-3 0  9994",
        "tle_line2": "2 34985  86.3684  52.1047 0021968 182.3312 299.1424 14.42054167873363"
      },
      "geometry": {
        "type": "Point",
        "coordinates": [
          51.472323367221584,
          -7.287372217640874
        ]
      }
    },
    {
      "type": "Feature",
      "properties": {
        "norad_id": 35051,
        "name": "IRIDIUM 33 DEB",
        "group": "iridium-33-debris",
        "lat": 21.463448405145275,
        "lon": -177.6349551073339,
        "alt_km": 734.5641025264295,
        "timestamp": "2025-12-24T07:45:06.584065+00:00",
        "meta_object_name": "IRIDIUM 33 DEB",
        "meta_object_id": "1997-051NX",
        "meta_epoch": "2025-12-22T18:31:37.744896",
        "meta_mean_motion": 14.47639956,
        "meta_eccentricity": 0.0010302,
        "meta_inclination": 86.324,
        "meta_ra_of_asc_node": 4.4893,
        "meta_arg_of_pericenter": 63.2582,
        "meta_mean_anomaly": 296.9674,
        "meta_ephemeris_type": 0,
        "meta_classification_type": "U",
        "meta_norad_cat_id": 35051,
        "meta_element_set_no": 999,
        "meta_rev_at_epoch": 87141,
        "meta_bstar": 0.00060447572,
        "meta_mean_motion_dot": 2.248e-05,
        "meta_mean_motion_ddot": 0,
        "tle_line1": "1 35051U 97051NX  25356.77196464  .00002248  00000+0  60448-3 0  9991",
        "tle_line2": "2 35051  86.3240   4.4893 0010302  63.2582 296.9674 14.47639956871417"
      },
      "geometry": {
        "type": "Point",
        "coordinates": [
          -177.6349551073339,
          21.463448405145275
        ]
      }
    }
  ]
}